AQUA                    
1 27424U 02022A   26082.24523769  .00001095  00000+0  22813-3 0  9994
2 27424  98.4198  49.8594 0000915 116.3230 354.8654 14.62007319270715
CZ-4B R/B               
1 27432U 02024C   26082.15034553  .00000031  00000+0  38962-4 0  9995
2 27432  98.8810 135.4875 0049786 345.9995  34.5163 14.14549996231140
MIDORI II (ADEOS-II)    
1 27597U 02056A   26082.17456434  .00000330  00000+0  14769-3 0  9990
2 27597  98.7793  40.7473 0001027  27.6921 332.4315 14.29294987212222
H-2A R/B                
1 27601U 02056E   26081.96386308  .00000280  00000+0  11230-3 0  9998
2 27601  98.3226  41.8259 0071182 121.4967 284.4449 14.33769066216016
CZ-4B R/B               
1 28059U 03049C   26081.99951553  .00000359  00000+0  93955-4 0  9994
2 28059  98.6891  77.4278 0047925 189.7348 170.2924 14.55031812188539
CZ-2C R/B               
1 28222U 04012C   26082.16168299  .00068475  00000+0  66163-3 0  9997
2 28222  97.7190 148.7447 0012995 254.6258 105.3565 15.66134257206388
SL-16 R/B               
1 28353U 04021B   26081.75099285 -.00000059  00000+0 -60454-5 0  9999
2 28353  71.0001 205.0820 0004681 353.6018   6.5044 14.14593300124684
CZ-4B R/B               
1 28415U 04035C   26082.06196019  .00010544  00000+0  36863-3 0  9994
2 28415  97.3476 116.1447 0030033 281.6956  78.0914 15.29292179181958
CZ-2C R/B               
1 28480U 04046B   26081.73797382  .00000141  00000+0  66983-4 0  9990
2 28480  98.1978 355.9093 0140461 116.0744 245.4973 14.26996419110365
ARIANE 5 R/B            
1 28499U 04049H   26082.17357319  .00000842  00000+0  99406-4 0  9998
2 28499  98.2647 251.1373 0083087 307.9013  51.4707 14.85289232147797
CZ-2D R/B               
1 28738U 05024B   26082.04511482  .00052926  00000+0  62053-3 0  9994
2 28738  97.3588  97.6925 0003387   6.9253 353.2051 15.61350624141866
ALOS (DAICHI)           
1 28931U 06002A   26082.18617911  .00001471  00000+0  25441-3 0  9994
2 28931  98.1241  38.0761 0000707  93.3836 266.7451 14.69850625 75460
